NORAD_CAT_ID,OBJECT_NAME,OBJECT_TYPE,EPOCH,MEAN_MOTION,ECCENTRICITY,INCLINATION,RA_OF_ASC_NODE,ARG_OF_PERICENTER,MEAN_ANOMALY,BSTAR,MEAN_MOTION_DOT,MEAN_MOTION_DDOT,TLE_LINE0,TLE_LINE1,TLE_LINE2,SEMIMAJOR_AXIS,PERIOD,APOGEE,PERIGEE,DECAYED
52865.0,STARLINK-4274,PAYLOAD,2023-04-19 15:35:36,15.08841242,0.000117,53.2171,80.3746,93.7938,266.3188,1.8722e-05,1e-07,0.0,0 STARLINK-4274,1 52865U 22062AM  23109.64972830  .00000010  00000-0  18722-4 0  9997,2 52865  53.2171  80.3746 0001170  93.7938 266.3188 15.08841242 46653,6917.877,95.437,540.551,538.932,0.0
52865.0,STARLINK-4274,PAYLOAD,2023-04-20 04:18:40,15.08850707,0.0001002,53.216,77.9957,101.3469,258.7636,7.3262e-05,8.79e-06,0.0,0 STARLINK-4274,1 52865U 22062AM  23110.17964024  .00000879  00000-0  73262-4 0  9996,2 52865  53.2160  77.9957 0001002 101.3469 258.7636 15.08850707 47229,6917.848,95.437,540.406,539.019,0.0
52865.0,STARLINK-4274,PAYLOAD,2023-04-20 07:29:26,15.08852816,0.0001056,53.2161,77.4004,105.6889,254.4219,0.00010211,1.338e-05,0.0,0 STARLINK-4274,1 52865U 22062AM  23110.31211773  .00001338  00000-0  10211-3 0  9993,2 52865  53.2161  77.4004 0001056 105.6889 254.4219 15.08852816 46750,6917.841,95.437,540.437,538.976,0.0
52865.0,STARLINK-4274,PAYLOAD,2023-04-21 04:09:29,15.08830831,9.74e-05,53.2161,73.5357,100.268,259.8422,1.7135e-05,-1.5e-07,0.0,0 STARLINK-4274,1 52865U 22062AM  23111.17325963 -.00000015  00000-0  17135-4 0  9990,2 52865  53.2161  73.5357 0000974 100.2680 259.8422 15.08830831 47373,6917.908,95.438,540.447,539.1,0.0
52865.0,STARLINK-4274,PAYLOAD,2023-04-21 07:20:15,15.0883202,9.61e-05,53.2163,72.9407,95.9812,264.129,3.1681e-05,2.16e-06,0.0,0 STARLINK-4274,1 52865U 22062AM  23111.30573966  .00000216  00000-0  31681-4 0  9997,2 52865  53.2163  72.9407 0000961  95.9812 264.1290 15.08832020 46909,6917.905,95.438,540.435,539.105,0.0
52865.0,STARLINK-4274,PAYLOAD,2023-04-22 07:11:01,15.08853017,0.0001274,53.2156,68.4801,83.4622,276.6515,0.00015802,2.229e-05,0.0,0 STARLINK-4274,1 52865U 22062AM  23112.29932379  .00002229  00000-0  15802-3 0  9995,2 52865  53.2156  68.4801 0001274  83.4622 276.6515 15.08853017 47546,6917.841,95.437,540.587,538.824,0.0
52865.0,STARLINK-4274,PAYLOAD,2023-04-23 07:01:49,15.08843755,0.0001117,53.2165,64.0196,84.5024,275.6095,0.00012112,1.641e-05,0.0,0 STARLINK-4274,1 52865U 22062AM  23113.29292952  .00001641  00000-0  12112-3 0  9990,2 52865  53.2165  64.0196 0001117  84.5024 275.6095 15.08843755 47202,6917.869,95.437,540.507,538.961,0.0
52865.0,STARLINK-4274,PAYLOAD,2023-04-24 05:17:12,15.08859714,0.0001395,53.2174,59.857,89.1561,270.9591,0.00011945,1.615e-05,0.0,0 STARLINK-4274,1 52865U 22062AM  23114.22027787  .00001615  00000-0  11945-3 0  9990,2 52865  53.2174  59.8570 0001395  89.1561 270.9591 15.08859714 47341,6917.82,95.436,540.65,538.72,0.0
52865.0,STARLINK-4274,PAYLOAD,2023-04-25 06:43:21,15.08862843,0.0001131,53.2162,55.0996,99.6365,260.4755,0.00020319,2.949e-05,0.0,0 STARLINK-4274,1 52865U 22062AM  23115.28010634  .00002949  00000-0  20319-3 0  9996,2 52865  53.2162  55.0996 0001131  99.6365 260.4755 15.08862843 47505,6917.811,95.436,540.458,538.893,0.0
52865.0,STARLINK-4274,PAYLOAD,2023-04-26 03:23:25,15.0881837,0.0001255,53.2183,51.2379,110.5008,249.6119,-0.00025374,-4.321e-05,0.0,0 STARLINK-4274,1 52865U 22062AM  23116.14127198 -.00004321  00000-0 -25374-3 0  9990,2 52865  53.2183  51.2379 0001255 110.5008 249.6119 15.08818370 47638,6917.947,95.439,540.68,538.943,0.0
52865.0,STARLINK-4274,PAYLOAD,2023-04-27 01:38:49,15.08828689,0.0001079,53.2177,47.0723,101.953,258.1583,-0.00014236,-2.552e-05,0.0,0 STARLINK-4274,1 52865U 22062AM  23117.06862843 -.00002552  00000-0 -14236-3 0  9994,2 52865  53.2177  47.0723 0001079 101.9530 258.1583 15.08828689 48269,6917.915,95.438,540.526,539.034,0.0
52865.0,STARLINK-4274,PAYLOAD,2023-04-27 04:49:35,15.08839445,0.0001316,53.2188,46.4761,90.7271,269.3872,-5.1671e-05,-1.11e-05,0.0,0 STARLINK-4274,1 52865U 22062AM  23117.20110035 -.00001110  00000-0 -51671-4 0  9993,2 52865  53.2188  46.4761 0001316  90.7271 269.3872 15.08839445 47791,6917.882,95.438,540.657,538.837,0.0
52865.0,STARLINK-4274,PAYLOAD,2023-04-28 01:29:34,15.08850522,0.0001166,53.2182,42.6141,80.7533,279.3591,0.00050473,7.756e-05,0.0,0 STARLINK-4274,1 52865U 22062AM  23118.06220474  .00007756  00000-0  50473-3 0  9995,2 52865  53.2182  42.6141 0001166  80.7533 279.3591 15.08850522 48416,6917.848,95.437,540.52,538.907,0.0
52865.0,STARLINK-4274,PAYLOAD,2023-04-28 18:58:50,15.08845663,0.0001189,53.2181,39.3413,77.3368,282.7757,4.2677e-05,3.92e-06,0.0,0 STARLINK-4274,1 52865U 22062AM  23118.79086373  .00000392  00000-0  42677-4 0  9990,2 52865  53.2181  39.3413 0001189  77.3368 282.7757 15.08845663 48527,6917.863,95.437,540.551,538.906,0.0
52865.0,STARLINK-4274,PAYLOAD,2023-04-29 04:31:07,15.08868071,7.37e-05,53.2187,37.5591,71.638,288.4692,0.0001591,2.247e-05,0.0,0 STARLINK-4274,1 52865U 22062AM  23119.18828138  .00002247  00000-0  15910-3 0  9997,2 52865  53.2187  37.5591 0000737  71.6380 288.4692 15.08868071 48584,6917.795,95.436,540.169,539.15,0.0
52865.0,STARLINK-4274,PAYLOAD,2023-04-29 18:49:35,15.0886739,9.65e-05,53.2175,34.879,92.6247,267.4856,-4.6859e-05,-1.034e-05,0.0,0 STARLINK-4274,1 52865U 22062AM  23119.78444147 -.00001034  00000-0 -46859-4 0  9999,2 52865  53.2175  34.8790 0000965  92.6247 267.4856 15.08867390 48672,6917.797,95.436,540.329,538.994,0.0
52865.0,STARLINK-4274,PAYLOAD,2023-04-30 02:46:30,15.08872938,0.0001084,53.2181,33.3958,86.4212,273.6904,-9.9344e-06,-4.46e-06,0.0,0 STARLINK-4274,1 52865U 22062AM  23120.11563173 -.00000446  00000-0 -99344-5 0  9993,2 52865  53.2181  33.3958 0001084  86.4212 273.6904 15.08872938 48728,6917.78,95.435,540.395,538.895,0.0
52865.0,STARLINK-4274,PAYLOAD,2023-04-30 21:51:11,15.0882187,8.13e-05,53.2181,29.8238,113.733,246.3747,-8.4143e-05,-1.626e-05,0.0,0 STARLINK-4274,1 52865U 22062AM  23120.91054706 -.00001626  00000-0 -84143-4 0  9999,2 52865  53.2181  29.8238 0000813 113.7330 246.3747 15.08821870 48847,6917.936,95.439,540.363,539.238,0.0
52865.0,STARLINK-4274,PAYLOAD,2023-05-01 02:37:20,15.08823417,8.41e-05,53.2186,28.9318,112.1517,247.9565,-7.3861e-05,-1.462e-05,0.0,0 STARLINK-4274,1 52865U 22062AM  23121.10926763 -.00001462  00000-0 -73861-4 0  9995,2 52865  53.2186  28.9318 0000841 112.1517 247.9565 15.08823417 48385,6917.931,95.439,540.378,539.214,0.0
52865.0,STARLINK-4274,PAYLOAD,2023-05-01 21:41:57,15.088471,7.54e-05,53.2186,25.3651,115.0742,245.0328,-6.5527e-05,-1.331e-05,0.0,0 STARLINK-4274,1 52865U 22062AM  23121.90413451 -.00001331  00000-0 -65527-4 0  9993,2 52865  53.2186  25.3651 0000754 115.0742 245.0328 15.08847100 48506,6917.859,95.437,540.245,539.202,0.0
52865.0,STARLINK-4274,PAYLOAD,2023-05-01 23:17:20,15.08846516,7.29e-05,53.2181,25.0697,108.5654,251.5417,-7.0088e-05,-1.403e-05,0.0,0 STARLINK-4274,1 52865U 22062AM  23121.97037522 -.00001403  00000-0 -70088-4 0  9999,2 52865  53.2181  25.0697 0000729 108.5654 251.5417 15.08846516 49006,6917.86,95.437,540.23,539.221,0.0
52865.0,STARLINK-4274,PAYLOAD,2023-05-02 04:03:29,15.0885453,8.83e-05,53.2187,24.1746,115.3178,244.7906,5.5102e-05,5.9e-06,0.0,0 STARLINK-4274,1 52865U 22062AM  23122.16908687  .00000590  00000-0  55102-4 0  9994,2 52865  53.2187  24.1746 0000883 115.3178 244.7906 15.08854530 49030,6917.836,95.437,540.312,539.09,0.0
52865.0,STARLINK-4274,PAYLOAD,2023-05-02 18:21:58,15.08835568,0.0001005,53.2175,21.4978,123.4349,236.674,0.00026731,3.968e-05,0.0,0 STARLINK-4274,1 52865U 22062AM  23122.76525993  .00003968  00000-0  26731-3 0  9992,2 52865  53.2175  21.4978 0001005 123.4349 236.6740 15.08835568 49127,6917.894,95.438,540.454,539.064,0.0
52865.0,STARLINK-4274,PAYLOAD,2023-05-02 21:32:44,15.08835329,9.03e-05,53.2183,20.9033,118.7785,241.3298,0.0002485,3.669e-05,0.0,0 STARLINK-4274,1 52865U 22062AM  23122.89773794  .00003669  00000-0  24850-3 0  9998,2 52865  53.2183  20.9033 0000903 118.7785 241.3298 15.08835329 48652,6917.895,95.438,540.384,539.135,0.0
52865.0,STARLINK-4274,PAYLOAD,2023-05-03 10:15:50,15.08832854,7.45e-05,53.2191,18.5242,107.9589,252.1485,0.0001352,1.864e-05,0.0,0 STARLINK-4274,1 52865U 22062AM  23123.42766434  .00001864  00000-0  13520-3 0  9998,2 52865  53.2191  18.5242 0000745 107.9589 252.1485 15.08832854 49224,6917.902,95.438,540.283,539.252,0.0
52865.0,STARLINK-4274,PAYLOAD,2023-05-03 21:23:32,15.08838208,9.19e-05,53.2191,16.4427,104.7055,255.4039,-3.4738e-05,-8.4e-06,0.0,0 STARLINK-4274,1 52865U 22062AM  23123.89134706 -.00000840  00000-0 -34738-4 0  9990,2 52865  53.2191  16.4427 0000919 104.7055 255.4039 15.08838208 48805,6917.886,95.438,540.387,539.115,0.0
52865.0,STARLINK-4274,PAYLOAD,2023-05-04 10:06:37,15.08842767,6.89e-05,53.2183,14.065,103.0241,257.0828,-3.3145e-05,-8.15e-06,0.0,0 STARLINK-4274,1 52865U 22062AM  23124.42126361 -.00000815  00000-0 -33145-4 0  9991,2 52865  53.2183  14.0650 0000689 103.0241 257.0828 15.08842767 48888,6917.872,95.437,540.214,539.26,0.0
52865.0,STARLINK-4274,PAYLOAD,2023-05-04 21:14:19,15.08842814,7.4e-05,53.2182,11.9841,87.1825,272.9252,4.666e-05,4.55e-06,0.0,0 STARLINK-4274,1 52865U 22062AM  23124.88494377  .00000455  00000-0  46660-4 0  9990,2 52865  53.2182  11.9841 0000740  87.1825 272.9252 15.08842814 48951,6917.872,95.437,540.249,539.225,0.0
52865.0,STARLINK-4274,PAYLOAD,2023-05-04 22:49:42,15.08844663,7.01e-05,53.2177,11.6866,90.8714,269.2359,7.0337e-05,8.32e-06,0.0,0 STARLINK-4274,1 52865U 22062AM  23124.95118196  .00000832  00000-0  70337-4 0  9997,2 52865  53.2177  11.6866 0000701  90.8714 269.2359 15.08844663 49451,6917.866,95.437,540.216,539.246,0.0
52865.0,STARLINK-4274,PAYLOAD,2023-05-05 21:05:06,15.08845297,7.55e-05,53.2166,7.523,86.9854,273.1224,0.00017347,2.475e-05,0.0,0 STARLINK-4274,1 52865U 22062AM  23125.87854346  .00002475  00000-0  17347-3 0  9999,2 52865  53.2166   7.5230 0000755  86.9854 273.1224 15.08845297 49109,6917.864,95.437,540.251,539.207,0.0
